ONEWEB-0512             
1 54130U 22138T   22312.91667824 -.00041264  00000+0 -43083-2 0  9990
2 54130  87.4287 211.3586 0013606 232.6137 336.2932 14.89989015  1303
ONEWEB-0513             
1 54131U 22138U   22313.25001157 -.00992185  00000+0 -21039+0 0  9991
2 54131  87.4723 211.3772 0008962 231.3519  39.5507 14.62263068  3458
ONEWEB-0514             
1 54132U 22138V   22313.25001157 -.00009860  00000+0 -10017-2 0  9998
2 54132  87.4312 211.2438 0010180 220.2128  40.5320 14.91025893  3470
ONEWEB-0515             
1 54133U 22138W   22313.25001157 -.00009133  00000+0 -91556-3 0  9990
2 54133  87.3472 211.2106 0008708 228.0796  68.3287 14.91573511  3474
ONEWEB-0516             
1 54134U 22138X   22313.25001157 -.00010782  00000+0 -10997-2 0  9992
2 54134  87.4316 211.2489 0010851 218.7395  31.4722 14.90857020  3474
ONEWEB-0517             
1 54135U 22138Y   22313.25001157  .00019792  00000+0  20179-2 0  9994
2 54135  87.4298 211.2494 0012331 222.3327   8.1847 14.90524910  3479
ONEWEB-0518             
1 54136U 22138Z   22313.25001157 -.00012910  00000+0 -13388-2 0  9996
2 54136  87.4314 211.2547 0013041 227.6935 339.1595 14.90164172  3477
ONEWEB-0519             
1 54137U 22138AA  22313.25001157 -.00009290  00000+0 -93974-3 0  9994
2 54137  87.4317 211.2473 0009455 222.0842  50.0103 14.91206423  3470
ONEWEB-0520             
1 54138U 22138AB  22313.25001157 -.00011319  00000+0 -11607-2 0  9992
2 54138  87.4327 211.2519 0012115 221.7899  14.0869 14.90629716  3470
ONEWEB-0521             
1 54139U 22138AC  22313.25001157 -.00013407  00000+0 -14232-2 0  9990
2 54139  87.4302 211.2600 0013087 245.0317 262.9324 14.89221035  3478
ONEWEB-0522             
1 54140U 22138AD  22313.25001157 -.00092108  00000+0 -97058-2 0  9994
2 54140  87.4325 211.2605 0014185 233.4988 311.3899 14.89887653  3475
ONEWEB-0523             
1 54141U 22138AE  22313.25001157 -.00008907  00000+0 -88881-3 0  9994
2 54141  87.3512 211.2190 0008209 236.7775  70.6007 14.91762500  3474
ONEWEB-0524             
1 54142U 22138AF  22313.25001157 -.00008820  00000+0 -88096-3 0  9997
2 54142  87.3477 211.2108 0008220 235.5841  69.3376 14.91726745  3473
ONEWEB-0525             
1 54143U 22138AG  22313.25001157 -.00091723  00000+0 -95215-2 0  9992
2 54143  87.4332 211.2538 0011957 221.8311   5.1254 14.90511256  3474
ONEWEB-0526             
1 54144U 22138AH  22313.25001157 -.00014081  00000+0 -14736-2 0  9994
2 54144  87.4307 211.2566 0014147 234.4282 308.5650 14.89786739  3477
ONEWEB-0529             
1 54145U 22138AJ  22313.25001157 -.00013126  00000+0 -13626-2 0  9991
2 54145  87.4296 211.2512 0013614 228.6489 335.0632 14.90115578  3472
ONEWEB-0531             
1 54146U 22138AK  22313.25001157 -.00008994  00000+0 -90009-3 0  9990
2 54146  87.3509 211.2218 0008347 235.9493  64.0233 14.91646510  3477
ONEWEB-0535             
1 54147U 22138AL  22313.25001157 -.00127353  00000+0 -13021-1 0  9999
2 54147  87.4314 211.2445 0009368 222.6108  51.8455 14.91342032  3477
ONEWEB-0536             
1 54148U 22138AM  22313.25001157 -.00007949  00000+0 -79842-3 0  9993
2 54148  87.3711 211.2295 0008296 228.4018  63.1162 14.91513892  3479
GSLV R/B                
1 54149U 22138AN  22312.70626469  .00002023  00000+0  22058-3 0  9995
2 54149  87.3904 211.4135 0023610 217.4156 142.5428 14.87274280  2529
GONETS-M 23             
1 54150U 22139A   22313.03439377  .00000010  00000+0  00000+0 0  9998
2 54150  82.5054  86.1233 0016657 207.4132 152.6072 12.41994547  2144
GONETS-M 24             
1 54151U 22139B   22313.10873958  .00000010  00000+0  00000+0 0  9994
2 54151  82.4959  86.0565 0012475 229.1396 130.8604 12.43606151  2155
GONETS-M 25             
1 54152U 22139C   22313.10373082  .00000010  00000+0  00000+0 0  9998
2 54152  82.5001  86.0613 0013688 223.1687 136.8327 12.43968509  2159
PROGRESS-MS 21          
1 54155U 22140A   22312.55921296  .00013108  00000+0  23836-3 0  9995
2 54155  51.6454 341.3893 0006509  50.3460  48.4298 15.49855931367579
STARLINK-5290           
1 54157U 22141A   22312.09839272 -.00315963  00000+0 -20596-2 0  9994
2 54157  53.2201  89.2202 0000574  82.7927 277.3160 15.76057927  1771
STARLINK-5297           
1 54158U 22141B   22313.16667824 -.00004327  00000+0 -26414-4 0  9992
2 54158  53.2175  83.9216 0001712  38.8699 258.5458 15.73205486  1932
STARLINK-5294           
1 54159U 22141C   22313.16667824 -.00009324  00000+0 -62058-4 0  9999
2 54159  53.2175  83.9204 0001709  40.2099 257.8005 15.73208418  1935
STARLINK-5233           
1 54160U 22141D   22313.16667824 -.00645522  00000+0 -48404-2 0  9994
2 54160  53.2175  83.8597 0001531  45.9962 281.4325 15.73755232  1934
STARLINK-5269           
1 54161U 22141E   22313.16667824 -.00075960  00000+0 -53872-3 0  9994
2 54161  53.2174  83.9228 0001719  38.9385 259.5887 15.73326770  1935
STARLINK-5273           
1 54162U 22141F   22313.16667824  .00119985  00000+0  84964-3 0  9995
2 54162  53.2178  83.9205 0001480  58.0224 241.6833 15.73131405  1937
STARLINK-5161           
1 54163U 22141G   22313.16667824 -.00096173  00000+0 -68678-3 0  9995
2 54163  53.2175  83.9092 0001671  45.2491 258.1003 15.73262899  1939
STARLINK-5278           
1 54164U 22141H   22313.16667824 -.00075574  00000+0 -53772-3 0  9997
2 54164  53.2175  83.9105 0001613  42.2846 260.4751 15.73249745  1933
STARLINK-5279           
1 54165U 22141J   22313.16667824 -.00028777  00000+0 -20114-3 0  9995
2 54165  53.2175  83.9155 0001411  41.9107 258.4783 15.73220645  1931
STARLINK-5280           
1 54166U 22141K   22313.16667824 -.00105531  00000+0 -75470-3 0  9995
2 54166  53.2175  83.9082 0001466  58.4156 245.5269 15.73268885  1932
STARLINK-5243           
1 54167U 22141L   22313.16667824 -.00039276  00000+0 -27640-3 0  9994
2 54167  53.2175  83.9143 0001444  37.0387 263.9431 15.73227313  1932
STARLINK-5245           
1 54168U 22141M   22313.25001157  .00134131  00000+0  94507-3 0  9996
2 54168  53.2172  83.4951 0001678  55.8904   1.4001 15.73196224  1950
STARLINK-5282           
1 54169U 22141N   22313.16667824 -.00058471  00000+0 -41438-3 0  9995
2 54169  53.2175  83.9118 0001513  40.2703 261.8984 15.73239067  1930
STARLINK-5155           
1 54170U 22141P   22313.16667824 -.00165506  00000+0 -11925-2 0  9992
2 54170  53.2175  83.9045 0001476  40.6187 265.0907 15.73309423  1934
STARLINK-5229           
1 54171U 22141Q   22313.16667824 -.00051490  00000+0 -36415-3 0  9991
2 54171  53.2175  83.9131 0001312  45.7207 255.8537 15.73234866  1933
STARLINK-5117           
1 54172U 22141R   22313.16667824 -.00186370  00000+0 -13459-2 0  9990
2 54172  53.2175  83.9019 0001324  43.4144 263.4795 15.73323889  1932
STARLINK-5242           
1 54173U 22141S   22313.16667824 -.00124026  00000+0 -88922-3 0  9999
2 54173  53.2175  83.9069 0001543  53.3860 251.1465 15.73280933  1936
STARLINK-5248           
1 54174U 22141T   22312.91667824 -.00750451  00000+0 -33147-2 0  9997
2 54174  53.2167  84.7015 0007645 270.3179 277.7490 15.85457386  1305
STARLINK-5256           
1 54175U 22141U   22313.16667824 -.00167207  00000+0 -12050-2 0  9997
2 54175  53.2175  83.9033 0001436  41.6925 264.6126 15.73310399  1935
STARLINK-5154           
1 54176U 22141V   22313.16667824 -.00250662  00000+0 -18218-2 0  9998
2 54176  53.2174  83.8973 0001856  36.1269 273.1265 15.73368774  1932
STARLINK-5186           
1 54177U 22141W   22313.16667824 -.00196925  00000+0 -14237-2 0  9997
2 54177  53.2175  83.9006 0001303  44.4505 263.0355 15.73331211  1938
STARLINK-5164           
1 54178U 22141X   22313.16667824 -.00269859  00000+0 -19649-2 0  9997
2 54178  53.2173  83.8962 0001584  44.1203 265.7193 15.73384171  1932
STARLINK-5122           
1 54179U 22141Y   22313.16667824 -.00214682  00000+0 -15549-2 0  9997
2 54179  53.2175  83.8994 0001271  51.0135 257.0615 15.73343806  2174
STARLINK-5228           
1 54180U 22141Z   22313.16667824 -.00332903  00000+0 -24380-2 0  9999
2 54180  53.2175  83.8897 0001183  51.0996 261.6896 15.73433726  2178
STARLINK-5227           
1 54181U 22141AA  22313.16667824 -.00278038  00000+0 -20260-2 0  9991
2 54181  53.2175  83.8946 0001616  49.1631 261.2692 15.73390205  2173
STARLINK-5231           
1 54182U 22141AB  22313.16667824 -.00384747  00000+0 -28299-2 0  9997
2 54182  53.2175  83.8848 0001563  44.9420 270.2007 15.73478290  2176
STARLINK-5239           
1 54183U 22141AC  22313.16667824 -.00316360  00000+0 -23133-2 0  9996
2 54183  53.2175  83.8910 0001370  43.7882 268.4124 15.73421113  2173
STARLINK-5162           
1 54184U 22141AD  22313.16667824 -.00345458  00000+0 -25326-2 0  9993
2 54184  53.2175  83.8885 0001275  42.4714 270.9062 15.73444729  2176
STARLINK-5235           
1 54185U 22141AE  22313.16667824 -.00306428  00000+0 -22388-2 0  9993
2 54185  53.2175  83.8921 0001311  58.0036 253.6073 15.73412267  2171
STARLINK-5194           
1 54186U 22141AF  22313.25001157 -.00224042  00000+0 -16242-2 0  9998
2 54186  53.2173  83.4694 0001481  45.7625  22.8886 15.73349867  2182
STARLINK-5240           
1 54187U 22141AG  22313.16667824 -.00291544  00000+0 -21272-2 0  9998
2 54187  53.2175  83.8934 0001359  67.2675 243.7551 15.73400201  2176
STARLINK-5238           
1 54188U 22141AH  22313.16667824 -.00422322  00000+0 -31164-2 0  9990
2 54188  53.2171  83.8839 0001781  43.0168 272.7048 15.73506887  2175
STARLINK-5182           
1 54189U 22141AJ  22313.16667824 -.00358324  00000+0 -26296-2 0  9991
2 54189  53.2175  83.8873 0001586  33.3634 280.6022 15.73456016  2179
STARLINK-5281           
1 54190U 22141AK  22313.16667824 -.00427105  00000+0 -31526-2 0  9999
2 54190  53.2175  83.8811 0001385  62.2473 254.6568 15.73515880  2173
STARLINK-4619           
1 54191U 22141AL  22313.16667824 -.00371567  00000+0 -27297-2 0  9990
2 54191  53.2175  83.8862 0001763  33.8550 280.6984 15.73467686  2171
